0 SL-8 R/B
1 11327U 79030B   13281.86141090  .00000046  00000-0  30969-4 0  6254
2 11327 082.9522 216.2164 0027383 354.4820 058.2095 13.76904882733724
0 SL-8 R/B
1 11327U 79030B   13282.95454088  .00000035  00000-0  20082-4 0  6263
2 11327 082.9523 215.4051 0027315 351.3976 076.7229 13.76905101733879
0 SL-8 R/B
1 11327U 79030B   13283.96791750  .00000036  00000-0  20825-4 0  6272
2 11327 082.9525 214.6531 0027254 348.5005 059.9468 13.76905210734014
0 SL-8 R/B
1 11327U 79030B   13286.16504072  .00000045  00000-0  30247-4 0  6297
2 11327 082.9528 213.0224 0027105 342.2310 150.8954 13.76905130734319
0 SL-8 R/B
1 11327U 79030B   13287.18257005  .00000059  00000-0  44164-4 0  6301
2 11327 082.9528 212.2673 0027050 339.2811 154.7459 13.76905073734453
0 SL-8 R/B
1 11327U 79030B   13288.19935759  .00000081  00000-0  66857-4 0  6311
2 11327 082.9529 211.5128 0026980 336.4152 154.8376 13.76905179734590
0 SL-8 R/B
1 11327U 79030B   13289.43608655  .00000074  00000-0  59699-4 0  6320
2 11327 082.9528 210.5951 0026907 332.8585 165.2232 13.76905224734768
0 SL-8 R/B
1 11327U 79030B   13290.72833126  .00000091  00000-0  76539-4 0  6339
2 11327 082.9527 209.6363 0026834 329.1074 090.8316 13.76905402734948
0 SL-8 R/B
1 11327U 79030B   13292.20350655  .00000085  00000-0  70640-4 0  6346
2 11327 082.9526 208.5417 0026769 324.8003 203.2461 13.76905611735142
0 SL-8 R/B
1 11327U 79030B   13293.20859417  .00000084  00000-0  69728-4 0  6352
2 11327 082.9525 207.7959 0026729 321.8491 145.4624 13.76905815735286
0 SL-8 R/B
1 11327U 79030B   13294.37658079  .00000065  00000-0  50354-4 0  6367
2 11327 082.9525 206.9292 0026664 318.4561 175.1321 13.76906129735446
0 SL-8 R/B
1 11327U 79030B   13295.39470138  .00000062  00000-0  48043-4 0  6378
2 11327 082.9525 206.1737 0026626 315.4693 181.9517 13.76906357735583
